{
  "type": "FeatureCollection",
  "features": [
    {
      "type": "Feature",
      "properties": {
        "norad_id": 57400,
        "name": "TIANMU-1 08",
        "group": "weather",
        "lat": -60.622074120191854,
        "lon": 58.813631242087204,
        "alt_km": 490.76936368512816,
        "timestamp": "2025-12-22T05:49:03.125104+00:00",
        "meta_object_name": "TIANMU-1 08",
        "meta_object_id": "2023-101B",
        "meta_epoch": "2025-12-21T20:39:25.184160",
        "meta_mean_motion": 15.28172866,
        "meta_eccentricity": 0.0007149,
        "meta_inclination": 97.285,
        "meta_ra_of_asc_node": 45.3059,
        "meta_arg_of_pericenter": 58.1628,
        "meta_mean_anomaly": 302.0307,
        "meta_ephemeris_type": 0,
        "meta_classification_type": "U",
        "meta_norad_cat_id": 57400,
        "meta_element_set_no": 999,
        "meta_rev_at_epoch": 13454,
        "meta_bstar": 0.00021733,
        "meta_mean_motion_dot": 5.899e-05,
        "meta_mean_motion_ddot": 0,
        "tle_line1": "1 57400U 23101B   25355.86070815  .00005899  00000+0  21733-3 0  9997",
        "tle_line2": "2 57400  97.2850  45.3059 0007149  58.1628 302.0307 15.28172866134544"
      },
      "geometry": {
        "type": "Point",
        "coordinates": [
          58.813631242087204,
          -60.622074120191854
        ]
      }
    },
    {
      "type": "Feature",
      "properties": {
        "norad_id": 57401,
        "name": "TIANMU-1 09",
        "group": "weather",
        "lat": 12.131123768902105,
        "lon": 43.612751209553196,
        "alt_km": 479.4361700843365,
        "timestamp": "2025-12-22T05:49:03.125114+00:00",
        "meta_object_name": "TIANMU-1 09",
        "meta_object_id": "2023-101C",
        "meta_epoch": "2025-12-21T20:20:07.190880",
        "meta_mean_motion": 15.28206265,
        "meta_eccentricity": 0.0006431,
        "meta_inclination": 97.2807,
        "meta_ra_of_asc_node": 44.8014,
        "meta_arg_of_pericenter": 58.8746,
        "meta_mean_anomaly": 301.3124,
        "meta_ephemeris_type": 0,
        "meta_classification_type": "U",
        "meta_norad_cat_id": 57401,
        "meta_element_set_no": 999,
        "meta_rev_at_epoch": 13454,
        "meta_bstar": 0.00022491,
        "meta_mean_motion_dot": 6.113e-05,
        "meta_mean_motion_ddot": 0,
        "tle_line1": "1 57401U 23101C   25355.84730545  .00006113  00000+0  22491-3 0  9991",
        "tle_line2": "2 57401  97.2807  44.8014 0006431  58.8746 301.3124 15.28206265134543"
      },
      "geometry": {
        "type": "Point",
        "coordinates": [
          43.612751209553196,
          12.131123768902105
        ]
      }
    },
    {
      "type": "Feature",
      "properties": {
        "norad_id": 57402,
        "name": "TIANMU-1 10",
        "group": "weather",
        "lat": -4.201525128539779,
        "lon": -134.4912615004032,
        "alt_km": 488.3039428115071,
        "timestamp": "2025-12-22T05:49:03.125124+00:00",
        "meta_object_name": "TIANMU-1 10",
        "meta_object_id": "2023-101D",
        "meta_epoch": "2025-12-21T19:35:10.000608",
        "meta_mean_motion": 15.28197488,
        "meta_eccentricity": 0.0008151,
        "meta_inclination": 97.2887,
        "meta_ra_of_asc_node": 45.6304,
        "meta_arg_of_pericenter": 57.0608,
        "meta_mean_anomaly": 303.1414,
        "meta_ephemeris_type": 0,
        "meta_classification_type": "U",
        "meta_norad_cat_id": 57402,
        "meta_element_set_no": 999,
        "meta_rev_at_epoch": 13453,
        "meta_bstar": 0.00023221,
        "meta_mean_motion_dot": 6.314e-05,
        "meta_mean_motion_ddot": 0,
        "tle_line1": "1 57402U 23101D   25355.81608797  .00006314  00000+0  23221-3 0  9997",
        "tle_line2": "2 57402  97.2887  45.6304 0008151  57.0608 303.1414 15.28197488134539"
      },
      "geometry": {
        "type": "Point",
        "coordinates": [
          -134.4912615004032,
          -4.201525128539779
        ]
      }
    },
    {
      "type": "Feature",
      "properties": {
        "norad_id": 57490,
        "name": "FENGYUN 3F",
        "group": "weather",
        "lat": -13.081635893992821,
        "lon": 66.42273862984695,
        "alt_km": 830.4887286417825,
        "timestamp": "2025-12-22T05:49:03.125137+00:00",
        "meta_object_name": "FENGYUN 3F",
        "meta_object_id": "2023-111A",
        "meta_epoch": "2025-12-21T19:43:56.714016",
        "meta_mean_motion": 14.19895824,
        "meta_eccentricity": 7.78e-05,
        "meta_inclination": 98.7075,
        "meta_ra_of_asc_node": 63.9686,
        "meta_arg_of_pericenter": 114.4567,
        "meta_mean_anomaly": 245.669,
        "meta_ephemeris_type": 0,
        "meta_classification_type": "U",
        "meta_norad_cat_id": 57490,
        "meta_element_set_no": 999,
        "meta_rev_at_epoch": 12369,
        "meta_bstar": 5.5378e-05,
        "meta_mean_motion_dot": 7.4e-07,
        "meta_mean_motion_ddot": 0,
        "tle_line1": "1 57490U 23111A   25355.82218419  .00000074  00000+0  55378-4 0  9990",
        "tle_line2": "2 57490  98.7075  63.9686 0000778 114.4567 245.6690 14.19895824123695"
      },
      "geometry": {
        "type": "Point",
        "coordinates": [
          66.42273862984695,
          -13.081635893992821
        ]
      }
    },
    {
      "type": "Feature",
      "properties": {
        "norad_id": 58584,
        "name": "ARKTIKA-M 2",
        "group": "weather",
        "lat": 10.65457336474977,
        "lon": -11.607096426328397,
        "alt_km": 9584.61878876057,
        "timestamp": "2025-12-22T05:49:03.125149+00:00",
        "meta_object_name": "ARKTIKA-M 2",
        "meta_object_id": "2023-198A",
        "meta_epoch": "2025-12-20T07:20:06.590112",
        "meta_mean_motion": 2.00602824,
        "meta_eccentricity": 0.68654675,
        "meta_inclination": 63.225,
        "meta_ra_of_asc_node": 174.0676,
        "meta_arg_of_pericenter": 268.0739,
        "meta_mean_anomaly": 18.8406,
        "meta_ephemeris_type": 0,
        "meta_classification_type": "U",
        "meta_norad_cat_id": 58584,
        "meta_element_set_no": 999,
        "meta_rev_at_epoch": 1473,
        "meta_bstar": 0,
        "meta_mean_motion_dot": 2.01e-06,
        "meta_mean_motion_ddot": 0,
        "tle_line1": "1 58584U 23198A   25354.30563183  .00000201  00000+0  00000+0 0  9992",
        "tle_line2": "2 58584  63.2250 174.0676 6865467 268.0739  18.8406  2.00602824 14734"
      },
      "geometry": {
        "type": "Point",
        "coordinates": [
          -11.607096426328397,
          10.65457336474977
        ]
      }
    },
    {
      "type": "Feature",
      "properties": {
        "norad_id": 58645,
        "name": "TIANMU-1 11",
        "group": "weather",
        "lat": -63.138466017973165,
        "lon": -179.08573791062182,
        "alt_km": 494.2569809305005,
        "timestamp": "2025-12-22T05:49:03.125161+00:00",
        "meta_object_name": "TIANMU-1 11",
        "meta_object_id": "2023-205A",
        "meta_epoch": "2025-12-21T19:17:57.411744",
        "meta_mean_motion": 15.24700302,
        "meta_eccentricity": 0.0007525,
        "meta_inclination": 97.3594,
        "meta_ra_of_asc_node": 15.2682,
        "meta_arg_of_pericenter": 271.7192,
        "meta_mean_anomaly": 88.3184,
        "meta_ephemeris_type": 0,
        "meta_classification_type": "U",
        "meta_norad_cat_id": 58645,
        "meta_element_set_no": 999,
        "meta_rev_at_epoch": 11047,
        "meta_bstar": 0.00021166,
        "meta_mean_motion_dot": 5.167e-05,
        "meta_mean_motion_ddot": 0,
        "tle_line1": "1 58645U 23205A   25355.80413671  .00005167  00000+0  21166-3 0  9997",
        "tle_line2": "2 58645  97.3594  15.2682 0007525 271.7192  88.3184 15.24700302110478"
      },
      "geometry": {
        "type": "Point",
        "coordinates": [
          -179.08573791062182,
          -63.138466017973165
        ]
      }
    },
    {
      "type": "Feature",
      "properties": {
        "norad_id": 58646,
        "name": "TIANMU-1 12",
        "group": "weather",
        "lat": 82.28555776905202,
        "lon": -91.95166561214502,
        "alt_km": 488.22825110860595,
        "timestamp": "2025-12-22T05:49:03.125172+00:00",
        "meta_object_name": "TIANMU-1 12",
        "meta_object_id": "2023-205B",
        "meta_epoch": "2025-12-21T19:57:45.222624",
        "meta_mean_motion": 15.24585997,
        "meta_eccentricity": 0.0005836,
        "meta_inclination": 97.3582,
        "meta_ra_of_asc_node": 15.0977,
        "meta_arg_of_pericenter": 250.0036,
        "meta_mean_anomaly": 110.0574,
        "meta_ephemeris_type": 0,
        "meta_classification_type": "U",
        "meta_norad_cat_id": 58646,
        "meta_element_set_no": 999,
        "meta_rev_at_epoch": 11046,
        "meta_bstar": 0.00021063,
        "meta_mean_motion_dot": 5.122e-05,
        "meta_mean_motion_ddot": 0,
        "tle_line1": "1 58646U 23205B   25355.83177341  .00005122  00000+0  21063-3 0  9999",
        "tle_line2": "2 58646  97.3582  15.0977 0005836 250.0036 110.0574 15.24585997110467"
      },
      "geometry": {
        "type": "Point",
        "coordinates": [
          -91.95166561214502,
          82.28555776905202
        ]
      }
    }
  ]
}